{
  "type": "FeatureCollection",
  "features": [
    {
      "type": "Feature",
      "properties": {
        "norad_id": 50032,
        "name": "COSMOS 1408 DEB",
        "group": "cosmos-1408-debris",
        "lat": 47.789903324762534,
        "lon": 71.18085283255184,
        "alt_km": 435.44645300506454,
        "timestamp": "2025-12-08T10:52:03.218029+00:00",
        "meta_object_name": "COSMOS 1408 DEB",
        "meta_object_id": "1982-092RU",
        "meta_epoch": "2025-12-07T17:34:01.076160",
        "meta_mean_motion": 15.45619008,
        "meta_eccentricity": 0.00148675,
        "meta_inclination": 82.5645,
        "meta_ra_of_asc_node": 63.6412,
        "meta_arg_of_pericenter": 228.0559,
        "meta_mean_anomaly": 131.9424,
        "meta_ephemeris_type": 0,
        "meta_classification_type": "U",
        "meta_norad_cat_id": 50032,
        "meta_element_set_no": 999,
        "meta_rev_at_epoch": 22526,
        "meta_bstar": 0.00016813731,
        "meta_mean_motion_dot": 8.166e-05,
        "meta_mean_motion_ddot": 0,
        "tle_line1": "1 50032U 82092RU  25341.73195690  .00008166  00000+0  16814-3 0  9999",
        "tle_line2": "2 50032  82.5645  63.6412 0014867 228.0559 131.9424 15.45619008225261"
      },
      "geometry": {
        "type": "Point",
        "coordinates": [
          71.18085283255184,
          47.789903324762534
        ]
      }
    },
    {
      "type": "Feature",
      "properties": {
        "norad_id": 50058,
        "name": "COSMOS 1408 DEB",
        "group": "cosmos-1408-debris",
        "lat": -30.839130527223933,
        "lon": 69.38440590471356,
        "alt_km": 392.03547882091243,
        "timestamp": "2025-12-08T10:52:03.218050+00:00",
        "meta_object_name": "COSMOS 1408 DEB",
        "meta_object_id": "1982-092SW",
        "meta_epoch": "2025-12-07T18:06:22.966272",
        "meta_mean_motion": 15.63666132,
        "meta_eccentricity": 0.00163167,
        "meta_inclination": 82.6132,
        "meta_ra_of_asc_node": 74.5574,
        "meta_arg_of_pericenter": 116.4206,
        "meta_mean_anomaly": 243.873,
        "meta_ephemeris_type": 0,
        "meta_classification_type": "U",
        "meta_norad_cat_id": 50058,
        "meta_element_set_no": 999,
        "meta_rev_at_epoch": 22726,
        "meta_bstar": 0.0004723699,
        "meta_mean_motion_dot": 0.00044422,
        "meta_mean_motion_ddot": 0,
        "tle_line1": "1 50058U 82092SW  25341.75443248  .00044422  00000+0  47237-3 0  9992",
        "tle_line2": "2 50058  82.6132  74.5574 0016316 116.4206 243.8730 15.63666132227266"
      },
      "geometry": {
        "type": "Point",
        "coordinates": [
          69.38440590471356,
          -30.839130527223933
        ]
      }
    },
    {
      "type": "Feature",
      "properties": {
        "norad_id": 50404,
        "name": "COSMOS 1408 DEB",
        "group": "cosmos-1408-debris",
        "lat": 42.65593343691779,
        "lon": 32.1659320220105,
        "alt_km": 494.8167169238259,
        "timestamp": "2025-12-08T10:52:03.218063+00:00",
        "meta_object_name": "COSMOS 1408 DEB",
        "meta_object_id": "1982-092ADS",
        "meta_epoch": "2025-12-07T16:47:22.854912",
        "meta_mean_motion": 15.12762303,
        "meta_eccentricity": 0.01739986,
        "meta_inclination": 82.2029,
        "meta_ra_of_asc_node": 220.189,
        "meta_arg_of_pericenter": 216.3079,
        "meta_mean_anomaly": 142.6247,
        "meta_ephemeris_type": 0,
        "meta_classification_type": "U",
        "meta_norad_cat_id": 50404,
        "meta_element_set_no": 999,
        "meta_rev_at_epoch": 21117,
        "meta_bstar": 0.0041519502,
        "meta_mean_motion_dot": 0.00106991,
        "meta_mean_motion_ddot": 0,
        "tle_line1": "1 50404U 82092ADS 25341.69957008  .00106991  00000+0  41520-2 0  9992",
        "tle_line2": "2 50404  82.2029 220.1890 0173998 216.3079 142.6247 15.12762303211173"
      },
      "geometry": {
        "type": "Point",
        "coordinates": [
          32.1659320220105,
          42.65593343691779
        ]
      }
    },
    {
      "type": "Feature",
      "properties": {
        "norad_id": 50621,
        "name": "COSMOS 1408 DEB",
        "group": "cosmos-1408-debris",
        "lat": 78.05109373876873,
        "lon": -139.4185405078964,
        "alt_km": 383.91353963293113,
        "timestamp": "2025-12-08T10:52:03.218075+00:00",
        "meta_object_name": "COSMOS 1408 DEB",
        "meta_object_id": "1982-092ALR",
        "meta_epoch": "2025-12-07T17:28:00.064992",
        "meta_mean_motion": 15.56277985,
        "meta_eccentricity": 0.0028731,
        "meta_inclination": 82.5719,
        "meta_ra_of_asc_node": 79.3978,
        "meta_arg_of_pericenter": 170.8741,
        "meta_mean_anomaly": 189.3043,
        "meta_ephemeris_type": 0,
        "meta_classification_type": "U",
        "meta_norad_cat_id": 50621,
        "meta_element_set_no": 999,
        "meta_rev_at_epoch": 22172,
        "meta_bstar": 0.00058025249,
        "meta_mean_motion_dot": 0.00041704,
        "meta_mean_motion_ddot": 0,
        "tle_line1": "1 50621U 82092ALR 25341.72777853  .00041704  00000+0  58025-3 0  9994",
        "tle_line2": "2 50621  82.5719  79.3978 0028731 170.8741 189.3043 15.56277985221727"
      },
      "geometry": {
        "type": "Point",
        "coordinates": [
          -139.4185405078964,
          78.05109373876873
        ]
      }
    }
  ]
}